CCSDS_OMM_VERS = 2.0
CREATION_DATE  = 
ORIGINATOR     = 

OBJECT_NAME    = 2026-052J
OBJECT_ID      = 2026-052J
CENTER_NAME    = EARTH
REF_FRAME      = TEME
TIME_SYSTEM    = UTC
MEAN_ELEMENT_THEORY = SGP/SGP4

EPOCH          = 2026-04-02T07:55:22.468224
MEAN_MOTION    = 14.68834482
ECCENTRICITY   = .05397277
INCLINATION    = 97.3407
RA_OF_ASC_NODE = 167.2342
ARG_OF_PERICENTER = 317.3526
MEAN_ANOMALY   = 38.6940

EPHEMERIS_TYPE = 0
CLASSIFICATION_TYPE = U
NORAD_CAT_ID   = 68206
ELEMENT_SET_NO = 999
REV_AT_EPOCH   = 252
BSTAR          = .13844799E-2
MEAN_MOTION_DOT = .94975E-3
MEAN_MOTION_DDOT = .3276879E-5

CCSDS_OMM_VERS = 2.0
CREATION_DATE  = 
ORIGINATOR     = 

OBJECT_NAME    = STARLINK-36986
OBJECT_ID      = 2026-053A
CENTER_NAME    = EARTH
REF_FRAME      = TEME
TIME_SYSTEM    = UTC
MEAN_ELEMENT_THEORY = SGP/SGP4

EPOCH          = 2026-04-02T06:45:30.850848
MEAN_MOTION    = 15.80894489
ECCENTRICITY   = .00013645
INCLINATION    = 97.2838
RA_OF_ASC_NODE = 327.7233
ARG_OF_PERICENTER = 101.3831
MEAN_ANOMALY   = 258.7591

EPHEMERIS_TYPE = 0
CLASSIFICATION_TYPE = U
NORAD_CAT_ID   = 68207
ELEMENT_SET_NO = 999
REV_AT_EPOCH   = 378
BSTAR          = .98649745E-3
MEAN_MOTION_DOT = .193768E-2
MEAN_MOTION_DDOT = 0

CCSDS_OMM_VERS = 2.0
CREATION_DATE  = 
ORIGINATOR     = 

OBJECT_NAME    = STARLINK-37009
OBJECT_ID      = 2026-053B
CENTER_NAME    = EARTH
REF_FRAME      = TEME
TIME_SYSTEM    = UTC
MEAN_ELEMENT_THEORY = SGP/SGP4

EPOCH          = 2026-04-02T06:44:25.890144
MEAN_MOTION    = 15.80912017
ECCENTRICITY   = .00013778
INCLINATION    = 97.2840
RA_OF_ASC_NODE = 327.7234
ARG_OF_PERICENTER = 83.6307
MEAN_ANOMALY   = 276.5118

EPHEMERIS_TYPE = 0
CLASSIFICATION_TYPE = U
NORAD_CAT_ID   = 68208
ELEMENT_SET_NO = 999
REV_AT_EPOCH   = 378
BSTAR          = .10985915E-2
MEAN_MOTION_DOT = .216543E-2
MEAN_MOTION_DDOT = 0

CCSDS_OMM_VERS = 2.0
CREATION_DATE  = 
ORIGINATOR     = 

OBJECT_NAME    = STARLINK-36948
OBJECT_ID      = 2026-053C
CENTER_NAME    = EARTH
REF_FRAME      = TEME
TIME_SYSTEM    = UTC
MEAN_ELEMENT_THEORY = SGP/SGP4

EPOCH          = 2026-04-02T06:43:20.827488
MEAN_MOTION    = 15.80906823
ECCENTRICITY   = .00014229
INCLINATION    = 97.2840
RA_OF_ASC_NODE = 327.7249
ARG_OF_PERICENTER = 74.0252
MEAN_ANOMALY   = 286.1173

EPHEMERIS_TYPE = 0
CLASSIFICATION_TYPE = U
NORAD_CAT_ID   = 68209
ELEMENT_SET_NO = 999
REV_AT_EPOCH   = 376
BSTAR          = .11970294E-2
MEAN_MOTION_DOT = .236447E-2
MEAN_MOTION_DDOT = 0

CCSDS_OMM_VERS = 2.0
CREATION_DATE  = 
ORIGINATOR     = 

OBJECT_NAME    = STARLINK-37119
OBJECT_ID      = 2026-053D
CENTER_NAME    = EARTH
REF_FRAME      = TEME
TIME_SYSTEM    = UTC
MEAN_ELEMENT_THEORY = SGP/SGP4

EPOCH          = 2026-04-02T06:42:16.026624
MEAN_MOTION    = 15.80901946
ECCENTRICITY   = .00015192
INCLINATION    = 97.2842
RA_OF_ASC_NODE = 327.7253
ARG_OF_PERICENTER = 59.4882
MEAN_ANOMALY   = 300.6536

EPHEMERIS_TYPE = 0
CLASSIFICATION_TYPE = U
NORAD_CAT_ID   = 68210
ELEMENT_SET_NO = 999
REV_AT_EPOCH   = 378
BSTAR          = .12074576E-2
MEAN_MOTION_DOT = .238513E-2
MEAN_MOTION_DDOT = 0

CCSDS_OMM_VERS = 2.0
CREATION_DATE  = 
ORIGINATOR     = 

OBJECT_NAME    = STARLINK-37120
OBJECT_ID      = 2026-053E
CENTER_NAME    = EARTH
REF_FRAME      = TEME
TIME_SYSTEM    = UTC
MEAN_ELEMENT_THEORY = SGP/SGP4

EPOCH          = 2026-04-02T06:41:11.086656
MEAN_MOTION    = 15.80932719
ECCENTRICITY   = .00014382
INCLINATION    = 97.2841
RA_OF_ASC_NODE = 327.7264
ARG_OF_PERICENTER = 83.7645
MEAN_ANOMALY   = 276.3787

EPHEMERIS_TYPE = 0
CLASSIFICATION_TYPE = U
NORAD_CAT_ID   = 68211
ELEMENT_SET_NO = 999
REV_AT_EPOCH   = 376
BSTAR          = .14478731E-2
MEAN_MOTION_DOT = .288081E-2
MEAN_MOTION_DDOT = 0

CCSDS_OMM_VERS = 2.0
CREATION_DATE  = 
ORIGINATOR     = 

OBJECT_NAME    = STARLINK-37117
OBJECT_ID      = 2026-053F
CENTER_NAME    = EARTH
REF_FRAME      = TEME
TIME_SYSTEM    = UTC
MEAN_ELEMENT_THEORY = SGP/SGP4

EPOCH          = 2026-04-02T03:37:47.923968
MEAN_MOTION    = 15.80891870
ECCENTRICITY   = .0001347
INCLINATION    = 97.2844
RA_OF_ASC_NODE = 327.5939
ARG_OF_PERICENTER = 64.3994
MEAN_ANOMALY   = 295.7413

EPHEMERIS_TYPE = 0
CLASSIFICATION_TYPE = U
NORAD_CAT_ID   = 68212
ELEMENT_SET_NO = 999
REV_AT_EPOCH   = 376
BSTAR          = .94671252E-3
MEAN_MOTION_DOT = .185753E-2
MEAN_MOTION_DDOT = 0

CCSDS_OMM_VERS = 2.0
CREATION_DATE  = 
ORIGINATOR     = 

OBJECT_NAME    = STARLINK-37116
OBJECT_ID      = 2026-053G
CENTER_NAME    = EARTH
REF_FRAME      = TEME
TIME_SYSTEM    = UTC
MEAN_ELEMENT_THEORY = SGP/SGP4

EPOCH          = 2026-04-02T05:07:52.148928
MEAN_MOTION    = 15.80935577
ECCENTRICITY   = .00015929
INCLINATION    = 97.2843
RA_OF_ASC_NODE = 327.6618
ARG_OF_PERICENTER = 64.4940
MEAN_ANOMALY   = 295.6493

EPHEMERIS_TYPE = 0
CLASSIFICATION_TYPE = U
NORAD_CAT_ID   = 68213
ELEMENT_SET_NO = 999
REV_AT_EPOCH   = 377
BSTAR          = .15575098E-2
MEAN_MOTION_DOT = .310762E-2
MEAN_MOTION_DDOT = 0

CCSDS_OMM_VERS = 2.0
CREATION_DATE  = 
ORIGINATOR     = 

OBJECT_NAME    = STARLINK-35854
OBJECT_ID      = 2026-053H
CENTER_NAME    = EARTH
REF_FRAME      = TEME
TIME_SYSTEM    = UTC
MEAN_ELEMENT_THEORY = SGP/SGP4

EPOCH          = 2026-04-02T03:35:38.029344
MEAN_MOTION    = 15.80908599
ECCENTRICITY   = .0001429
INCLINATION    = 97.2846
RA_OF_ASC_NODE = 327.5959
ARG_OF_PERICENTER = 70.0395
MEAN_ANOMALY   = 290.1027

EPHEMERIS_TYPE = 0
CLASSIFICATION_TYPE = U
NORAD_CAT_ID   = 68214
ELEMENT_SET_NO = 999
REV_AT_EPOCH   = 374
BSTAR          = .11485983E-2
MEAN_MOTION_DOT = .226636E-2
MEAN_MOTION_DDOT = 0

CCSDS_OMM_VERS = 2.0
CREATION_DATE  = 
ORIGINATOR     = 

OBJECT_NAME    = STARLINK-36272
OBJECT_ID      = 2026-053J
CENTER_NAME    = EARTH
REF_FRAME      = TEME
TIME_SYSTEM    = UTC
MEAN_ELEMENT_THEORY = SGP/SGP4

EPOCH          = 2026-04-02T06:36:59.283360
MEAN_MOTION    = 15.80269712
ECCENTRICITY   = .00006427
INCLINATION    = 97.2845
RA_OF_ASC_NODE = 327.7302
ARG_OF_PERICENTER = 147.0734
MEAN_ANOMALY   = 213.0574

EPHEMERIS_TYPE = 0
CLASSIFICATION_TYPE = U
NORAD_CAT_ID   = 68215
ELEMENT_SET_NO = 999
REV_AT_EPOCH   = 376
BSTAR          = -.18297878E-2
MEAN_MOTION_DOT = -.329379E-2
MEAN_MOTION_DDOT = 0

CCSDS_OMM_VERS = 2.0
CREATION_DATE  = 
ORIGINATOR     = 

OBJECT_NAME    = STARLINK-37014
OBJECT_ID      = 2026-053K
CENTER_NAME    = EARTH
REF_FRAME      = TEME
TIME_SYSTEM    = UTC
MEAN_ELEMENT_THEORY = SGP/SGP4

EPOCH          = 2026-04-02T05:04:37.405056
MEAN_MOTION    = 15.80895780
ECCENTRICITY   = .00017458
INCLINATION    = 97.2847
RA_OF_ASC_NODE = 327.6644
ARG_OF_PERICENTER = 55.8203
MEAN_ANOMALY   = 304.3230

EPHEMERIS_TYPE = 0
CLASSIFICATION_TYPE = U
NORAD_CAT_ID   = 68216
ELEMENT_SET_NO = 999
REV_AT_EPOCH   = 377
BSTAR          = .12380032E-2
MEAN_MOTION_DOT = .244656E-2
MEAN_MOTION_DDOT = 0

CCSDS_OMM_VERS = 2.0
CREATION_DATE  = 
ORIGINATOR     = 

OBJECT_NAME    = STARLINK-37011
OBJECT_ID      = 2026-053L
CENTER_NAME    = EARTH
REF_FRAME      = TEME
TIME_SYSTEM    = UTC
MEAN_ELEMENT_THEORY = SGP/SGP4

EPOCH          = 2026-04-02T06:34:41.430432
MEAN_MOTION    = 15.80907251
ECCENTRICITY   = .00012624
INCLINATION    = 97.2847
RA_OF_ASC_NODE = 327.7327
ARG_OF_PERICENTER = 71.4299
MEAN_ANOMALY   = 288.7106

EPHEMERIS_TYPE = 0
CLASSIFICATION_TYPE = U
NORAD_CAT_ID   = 68217
ELEMENT_SET_NO = 999
REV_AT_EPOCH   = 378
BSTAR          = .10082352E-2
MEAN_MOTION_DOT = .198259E-2
MEAN_MOTION_DDOT = 0

CCSDS_OMM_VERS = 2.0
CREATION_DATE  = 
ORIGINATOR     = 

OBJECT_NAME    = STARLINK-37108
OBJECT_ID      = 2026-053M
CENTER_NAME    = EARTH
REF_FRAME      = TEME
TIME_SYSTEM    = UTC
MEAN_ELEMENT_THEORY = SGP/SGP4

EPOCH          = 2026-04-02T06:33:36.403200
MEAN_MOTION    = 15.80927811
ECCENTRICITY   = .00014698
INCLINATION    = 97.2847
RA_OF_ASC_NODE = 327.7333
ARG_OF_PERICENTER = 45.8082
MEAN_ANOMALY   = 314.3307

EPHEMERIS_TYPE = 0
CLASSIFICATION_TYPE = U
NORAD_CAT_ID   = 68218
ELEMENT_SET_NO = 999
REV_AT_EPOCH   = 378
BSTAR          = .13060857E-2
MEAN_MOTION_DOT = .258922E-2
MEAN_MOTION_DDOT = 0

CCSDS_OMM_VERS = 2.0
CREATION_DATE  = 
ORIGINATOR     = 

OBJECT_NAME    = STARLINK-37106
OBJECT_ID      = 2026-053N
CENTER_NAME    = EARTH
REF_FRAME      = TEME
TIME_SYSTEM    = UTC
MEAN_ELEMENT_THEORY = SGP/SGP4

EPOCH          = 2026-04-02T06:32:31.648128
MEAN_MOTION    = 15.80904432
ECCENTRICITY   = .00015793
INCLINATION    = 97.2849
RA_OF_ASC_NODE = 327.7348
ARG_OF_PERICENTER = 85.9129
MEAN_ANOMALY   = 274.2320

EPHEMERIS_TYPE = 0
CLASSIFICATION_TYPE = U
NORAD_CAT_ID   = 68219
ELEMENT_SET_NO = 999
REV_AT_EPOCH   = 378
BSTAR          = .1536389E-2
MEAN_MOTION_DOT = .30594E-2
MEAN_MOTION_DDOT = 0

CCSDS_OMM_VERS = 2.0
CREATION_DATE  = 
ORIGINATOR     = 

OBJECT_NAME    = STARLINK-37030
OBJECT_ID      = 2026-053P
CENTER_NAME    = EARTH
REF_FRAME      = TEME
TIME_SYSTEM    = UTC
MEAN_ELEMENT_THEORY = SGP/SGP4

EPOCH          = 2026-04-02T08:01:30.913248
MEAN_MOTION    = 15.80935443
ECCENTRICITY   = .00014068
INCLINATION    = 97.2849
RA_OF_ASC_NODE = 327.8030
ARG_OF_PERICENTER = 96.2168
MEAN_ANOMALY   = 263.9261

EPHEMERIS_TYPE = 0
CLASSIFICATION_TYPE = U
NORAD_CAT_ID   = 68220
ELEMENT_SET_NO = 999
REV_AT_EPOCH   = 379
BSTAR          = .14277182E-2
MEAN_MOTION_DOT = .283969E-2
MEAN_MOTION_DDOT = 0

